COSMOS 2251 DEB         
1 35031U 93036AGU 26059.81823846  .00000425  00000+0  14764-3 0  9990
2 35031  74.0369 115.4074 0019266 198.1978 161.8489 14.38393141664068
COSMOS 2251 DEB         
1 35032U 93036AGV 26063.83541865  .00005926  00000+0  12172-2 0  9997
2 35032  73.8502 209.0623 0066169  40.8819 108.9838 14.59473038888713
COSMOS 2251 DEB         
1 35038U 93036AHB 26062.96368245  .00004500  00000+0  17780-2 0  9992
2 35038  74.1051 256.5836 0112501 220.5061 291.2997 14.25870634867268
COSMOS 2251 DEB         
1 35043U 93036AHG 26063.87096278  .00035585  00000+0  42104-2 0  9998
2 35043  73.9470 243.1051 0088195  70.3840 290.6830 14.81649577686332
COSMOS 2251 DEB         
1 35045U 93036AHJ 26058.02220840  .00000881  00000+0  52863-3 0  9990
2 35045  73.7162 277.9565 0181611 148.8646 212.3402 14.00562845857112
COSMOS 2251 DEB         
1 35060U 93036AHP 26062.45275018  .00001082  00000+0  33844-3 0  9998
2 35060  74.0349  94.7955 0017641 170.5426 189.6066 14.41808369884051
COSMOS 2251 DEB         
1 35061U 93036AHQ 26064.21988016  .00005209  00000+0  88923-3 0  9997
2 35061  74.0456 146.3464 0041733 239.8496 119.8537 14.68620225897857
COSMOS 2251 DEB         
1 35062U 93036AHR 26063.01032718  .00004466  00000+0  18043-2 0  9993
2 35062  74.0809 307.4228 0126383 285.9486  72.7766 14.23891079866556
COSMOS 2251 DEB         
1 35065U 93036AHU 26063.60569117  .00002054  00000+0  58246-3 0  9990
2 35065  74.0205  41.4710 0018662 154.7945 205.4128 14.46033825695349
COSMOS 2251 DEB         
1 35071U 93036AJA 26042.36976713  .00015602  00000+0  10408-2 0  9991
2 35071  73.9325  48.6140 0070044 290.1885  69.1780 15.05018922684482
COSMOS 2251 DEB         
1 35073U 93036AJC 26048.08717896  .00067409  00000+0  44075-2 0  9992
2 35073  73.9975 194.6296 0015625 301.2452  58.7207 15.07343553684769
COSMOS 2251 DEB         
1 35284U 93036AJN 26062.86252610  .00000556  00000+0  19062-3 0  9995
2 35284  74.0478 115.0513 0016437 181.2232 292.9910 14.38419398666921
COSMOS 2251 DEB         
1 35287U 93036AJR 26062.59848395  .00000410  00000+0  14851-3 0  9999
2 35287  74.0296 127.5502 0018660 212.6748 302.5155 14.36453474880534
COSMOS 2251 DEB         
1 35288U 93036AJS 26063.09280347  .00010812  00000+0  19319-2 0  9993
2 35288  73.9456 217.6114 0034953  69.7342 290.7579 14.66593119890707
COSMOS 2251 DEB         
1 35290U 93036AJU 26060.55319702  .00016498  00000+0  20177-2 0  9992
2 35290  74.0015 263.4450 0003482 357.1189   2.9969 14.83228059891255
COSMOS 2251 DEB         
1 35432U 93036AKA 26063.78021659  .00871538  00000+0  10606-1 0  9998
2 35432  74.0116 199.0502 0009574 340.6960  19.3893 15.57945131887633
