[{"OBJECT_NAME":"COSMOS 2251 DEB","OBJECT_ID":"1993-036AGU","EPOCH":"2026-02-28T19:38:15.802944","MEAN_MOTION":14.38393141,"ECCENTRICITY":0.00192661,"INCLINATION":74.0369,"RA_OF_ASC_NODE":115.4074,"ARG_OF_PERICENTER":198.1978,"MEAN_ANOMALY":161.8489,"EPHEMERIS_TYPE":0,"CLASSIFICATION_TYPE":"U","NORAD_CAT_ID":35031,"ELEMENT_SET_NO":999,"REV_AT_EPOCH":66406,"BSTAR":0.0001476424,"MEAN_MOTION_DOT":4.25e-6,"MEAN_MOTION_DDOT":0},{"OBJECT_NAME":"COSMOS 2251 DEB","OBJECT_ID":"1993-036AGV","EPOCH":"2026-03-04T20:03:00.171360","MEAN_MOTION":14.59473038,"ECCENTRICITY":0.00661694,"INCLINATION":73.8502,"RA_OF_ASC_NODE":209.0623,"ARG_OF_PERICENTER":40.8819,"MEAN_ANOMALY":108.9838,"EPHEMERIS_TYPE":0,"CLASSIFICATION_TYPE":"U","NORAD_CAT_ID":35032,"ELEMENT_SET_NO":999,"REV_AT_EPOCH":88871,"BSTAR":0.0012171558,"MEAN_MOTION_DOT":5.926e-5,"MEAN_MOTION_DDOT":0},{"OBJECT_NAME":"COSMOS 2251 DEB","OBJECT_ID":"1993-036AHB","EPOCH":"2026-03-03T23:07:42.163680","MEAN_MOTION":14.25870634,"ECCENTRICITY":0.0112501,"INCLINATION":74.1051,"RA_OF_ASC_NODE":256.5836,"ARG_OF_PERICENTER":220.5061,"MEAN_ANOMALY":291.2997,"EPHEMERIS_TYPE":0,"CLASSIFICATION_TYPE":"U","NORAD_CAT_ID":35038,"ELEMENT_SET_NO":999,"REV_AT_EPOCH":86726,"BSTAR":0.001778,"MEAN_MOTION_DOT":4.5e-5,"MEAN_MOTION_DDOT":0},{"OBJECT_NAME":"COSMOS 2251 DEB","OBJECT_ID":"1993-036AHG","EPOCH":"2026-03-04T20:54:11.184192","MEAN_MOTION":14.81649577,"ECCENTRICITY":0.00881953,"INCLINATION":73.947,"RA_OF_ASC_NODE":243.1051,"ARG_OF_PERICENTER":70.384,"MEAN_ANOMALY":290.683,"EPHEMERIS_TYPE":0,"CLASSIFICATION_TYPE":"U","NORAD_CAT_ID":35043,"ELEMENT_SET_NO":999,"REV_AT_EPOCH":68633,"BSTAR":0.004210371,"MEAN_MOTION_DOT":0.00035585,"MEAN_MOTION_DDOT":0},{"OBJECT_NAME":"COSMOS 2251 DEB","OBJECT_ID":"1993-036AHJ","EPOCH":"2026-02-27T00:31:58.805760","MEAN_MOTION":14.00562845,"ECCENTRICITY":0.01816119,"INCLINATION":73.7162,"RA_OF_ASC_NODE":277.9565,"ARG_OF_PERICENTER":148.8646,"MEAN_ANOMALY":212.3402,"EPHEMERIS_TYPE":0,"CLASSIFICATION_TYPE":"U","NORAD_CAT_ID":35045,"ELEMENT_SET_NO":999,"REV_AT_EPOCH":85711,"BSTAR":0.00052863242,"MEAN_MOTION_DOT":8.81e-6,"MEAN_MOTION_DDOT":0},{"OBJECT_NAME":"COSMOS 2251 DEB","OBJECT_ID":"1993-036AHP","EPOCH":"2026-03-03T10:51:57.615552","MEAN_MOTION":14.41808369,"ECCENTRICITY":0.00176414,"INCLINATION":74.0349,"RA_OF_ASC_NODE":94.7955,"ARG_OF_PERICENTER":170.5426,"MEAN_ANOMALY":189.6066,"EPHEMERIS_TYPE":0,"CLASSIFICATION_TYPE":"U","NORAD_CAT_ID":35060,"ELEMENT_SET_NO":999,"REV_AT_EPOCH":88405,"BSTAR":0.00033844099,"MEAN_MOTION_DOT":1.082e-5,"MEAN_MOTION_DDOT":0},{"OBJECT_NAME":"COSMOS 2251 DEB","OBJECT_ID":"1993-036AHQ","EPOCH":"2026-03-05T05:16:37.645824","MEAN_MOTION":14.68620225,"ECCENTRICITY":0.00417333,"INCLINATION":74.0456,"RA_OF_ASC_NODE":146.3464,"ARG_OF_PERICENTER":239.8496,"MEAN_ANOMALY":119.8537,"EPHEMERIS_TYPE":0,"CLASSIFICATION_TYPE":"U","NORAD_CAT_ID":35061,"ELEMENT_SET_NO":999,"REV_AT_EPOCH":89785,"BSTAR":0.00088923468,"MEAN_MOTION_DOT":5.209e-5,"MEAN_MOTION_DDOT":0},{"OBJECT_NAME":"COSMOS 2251 DEB","OBJECT_ID":"1993-036AHR","EPOCH":"2026-03-04T00:14:52.268352","MEAN_MOTION":14.23891079,"ECCENTRICITY":0.01263831,"INCLINATION":74.0809,"RA_OF_ASC_NODE":307.4228,"ARG_OF_PERICENTER":285.9486,"MEAN_ANOMALY":72.7766,"EPHEMERIS_TYPE":0,"CLASSIFICATION_TYPE":"U","NORAD_CAT_ID":35062,"ELEMENT_SET_NO":999,"REV_AT_EPOCH":86655,"BSTAR":0.0018042989,"MEAN_MOTION_DOT":4.466e-5,"MEAN_MOTION_DDOT":0},{"OBJECT_NAME":"COSMOS 2251 DEB","OBJECT_ID":"1993-036AHU","EPOCH":"2026-03-04T14:32:11.717088","MEAN_MOTION":14.46033825,"ECCENTRICITY":0.0018662,"INCLINATION":74.0205,"RA_OF_ASC_NODE":41.471,"ARG_OF_PERICENTER":154.7945,"MEAN_ANOMALY":205.4128,"EPHEMERIS_TYPE":0,"CLASSIFICATION_TYPE":"U","NORAD_CAT_ID":35065,"ELEMENT_SET_NO":999,"REV_AT_EPOCH":69534,"BSTAR":0.00058246,"MEAN_MOTION_DOT":2.054e-5,"MEAN_MOTION_DDOT":0},{"OBJECT_NAME":"COSMOS 2251 DEB","OBJECT_ID":"1993-036AJA","EPOCH":"2026-02-11T08:52:27.880032","MEAN_MOTION":15.05018922,"ECCENTRICITY":0.00700444,"INCLINATION":73.9325,"RA_OF_ASC_NODE":48.614,"ARG_OF_PERICENTER":290.1885,"MEAN_ANOMALY":69.178,"EPHEMERIS_TYPE":0,"CLASSIFICATION_TYPE":"U","NORAD_CAT_ID":35071,"ELEMENT_SET_NO":999,"REV_AT_EPOCH":68448,"BSTAR":0.0010407924,"MEAN_MOTION_DOT":0.00015602,"MEAN_MOTION_DDOT":0},{"OBJECT_NAME":"COSMOS 2251 DEB","OBJECT_ID":"1993-036AJC","EPOCH":"2026-02-17T02:05:32.262144","MEAN_MOTION":15.07343553,"ECCENTRICITY":0.00156257,"INCLINATION":73.9975,"RA_OF_ASC_NODE":194.6296,"ARG_OF_PERICENTER":301.2452,"MEAN_ANOMALY":58.7207,"EPHEMERIS_TYPE":0,"CLASSIFICATION_TYPE":"U","NORAD_CAT_ID":35073,"ELEMENT_SET_NO":999,"REV_AT_EPOCH":68476,"BSTAR":0.004407525,"MEAN_MOTION_DOT":0.00067409,"MEAN_MOTION_DDOT":0},{"OBJECT_NAME":"COSMOS 2251 DEB","OBJECT_ID":"1993-036AJN","EPOCH":"2026-03-03T20:42:02.255040","MEAN_MOTION":14.38419398,"ECCENTRICITY":0.0016437,"INCLINATION":74.0478,"RA_OF_ASC_NODE":115.0513,"ARG_OF_PERICENTER":181.2232,"MEAN_ANOMALY":292.991,"EPHEMERIS_TYPE":0,"CLASSIFICATION_TYPE":"U","NORAD_CAT_ID":35284,"ELEMENT_SET_NO":999,"REV_AT_EPOCH":66692,"BSTAR":0.00019062,"MEAN_MOTION_DOT":5.56e-6,"MEAN_MOTION_DDOT":0},{"OBJECT_NAME":"COSMOS 2251 DEB","OBJECT_ID":"1993-036AJR","EPOCH":"2026-03-03T14:21:49.013280","MEAN_MOTION":14.36453474,"ECCENTRICITY":0.001866,"INCLINATION":74.0296,"RA_OF_ASC_NODE":127.5502,"ARG_OF_PERICENTER":212.6748,"MEAN_ANOMALY":302.5155,"EPHEMERIS_TYPE":0,"CLASSIFICATION_TYPE":"U","NORAD_CAT_ID":35287,"ELEMENT_SET_NO":999,"REV_AT_EPOCH":88053,"BSTAR":0.00014851,"MEAN_MOTION_DOT":4.1e-6,"MEAN_MOTION_DDOT":0},{"OBJECT_NAME":"COSMOS 2251 DEB","OBJECT_ID":"1993-036AJS","EPOCH":"2026-03-04T02:13:38.219808","MEAN_MOTION":14.66593119,"ECCENTRICITY":0.0034953,"INCLINATION":73.9456,"RA_OF_ASC_NODE":217.6114,"ARG_OF_PERICENTER":69.7342,"MEAN_ANOMALY":290.7579,"EPHEMERIS_TYPE":0,"CLASSIFICATION_TYPE":"U","NORAD_CAT_ID":35288,"ELEMENT_SET_NO":999,"REV_AT_EPOCH":89070,"BSTAR":0.0019319352,"MEAN_MOTION_DOT":0.00010812,"MEAN_MOTION_DDOT":0},{"OBJECT_NAME":"COSMOS 2251 DEB","OBJECT_ID":"1993-036AJU","EPOCH":"2026-03-01T13:16:36.222528","MEAN_MOTION":14.83228059,"ECCENTRICITY":0.00034827,"INCLINATION":74.0015,"RA_OF_ASC_NODE":263.445,"ARG_OF_PERICENTER":357.1189,"MEAN_ANOMALY":2.9969,"EPHEMERIS_TYPE":0,"CLASSIFICATION_TYPE":"U","NORAD_CAT_ID":35290,"ELEMENT_SET_NO":999,"REV_AT_EPOCH":89125,"BSTAR":0.0020176666,"MEAN_MOTION_DOT":0.00016498,"MEAN_MOTION_DDOT":0},{"OBJECT_NAME":"COSMOS 2251 DEB","OBJECT_ID":"1993-036AKA","EPOCH":"2026-03-04T18:43:30.713376","MEAN_MOTION":15.57945131,"ECCENTRICITY":0.00095749,"INCLINATION":74.0116,"RA_OF_ASC_NODE":199.0502,"ARG_OF_PERICENTER":340.696,"MEAN_ANOMALY":19.3893,"EPHEMERIS_TYPE":0,"CLASSIFICATION_TYPE":"U","NORAD_CAT_ID":35432,"ELEMENT_SET_NO":999,"REV_AT_EPOCH":88763,"BSTAR":0.010605702,"MEAN_MOTION_DOT":0.00871538,"MEAN_MOTION_DDOT":0}]
